KUIPER-00061            
1 64521U 25134X   25268.91670139 -.00254214  00000+0 -18479-1 0  9991
2 64521  51.8929 238.3529 0008179  80.9926  94.0606 15.04668162  3798
KUIPER-00062            
1 64522U 25134Y   25268.91670139  .00043759  00000+0  34798-2 0  9993
2 64522  51.8888 244.7484 0010076  97.7437 241.5972 14.99962608  4922
KUIPER-00063            
1 64523U 25134Z   25266.68085499  .00006380  00000+0  87095-3 0  9993
2 64523  51.9006 256.4751 0004474  46.9629 313.1707 14.79644456 15275
KUIPER-00064            
1 64524U 25134AA  25268.91670139  .00024495  00000+0  32415-2 0  9995
2 64524  51.9015 243.7828 0006388 162.5628 334.5126 14.79778009  4654
KUIPER-00065            
1 64525U 25134AB  25268.67107832  .00006305  00000+0  85739-3 0  9992
2 64525  51.8995 249.9112 0012025  95.8935 264.3399 14.79796579 15521
KUIPER-00066            
1 64526U 25134AC  25268.08688910  .00029841  00000+0  14403-2 0  9998
2 64526  51.8893 244.3933 0006270  79.7850 280.3836 15.18416021 15564
KUIPER-00069            
1 64816U 25151A   25268.36388235  .00070668  00000+0  18831-2 0  9999
2 64816  51.8789 304.3932 0007728  37.2435 322.9087 15.37496517 12100
KUIPER-00070            
1 64817U 25151B   25268.40003657  .00005344  00000+0  73176-3 0  9990
2 64817  51.8992 316.4004 0009661  70.6469 289.5537 14.79781321 11941
